OBJECT_NAME,OBJECT_ID,EPOCH,MEAN_MOTION,ECCENTRICITY,INCLINATION,RA_OF_ASC_NODE,ARG_OF_PERICENTER,MEAN_ANOMALY,EPHEMERIS_TYPE,CLASSIFICATION_TYPE,NORAD_CAT_ID,ELEMENT_SET_NO,REV_AT_EPOCH,BSTAR,MEAN_MOTION_DOT,MEAN_MOTION_DDOT
LINGQIAO VIDEO A,2015-057B,2026-05-16T20:49:12.006912,14.77344279,.0017365,97.6614,133.2167,16.6231,343.5546,0,U,40959,999,57078,.25648E-4,.134E-5,0
LINGQIAO VIDEO B,2015-057C,2026-05-16T21:56:22.020000,14.77451499,.0017524,97.6581,134.4329,16.5841,343.5939,0,U,40960,999,57083,.96381E-4,.64E-5,0
JILIN-1,2015-057D,2026-05-16T19:20:52.764864,14.78103758,.0017218,97.6511,137.7331,11.2417,348.9176,0,U,40961,999,57097,.7589E-4,.501E-5,0
FOX-1A (AO-85),2015-058D,2026-05-16T16:35:28.936032,14.90772442,.0129119,64.7768,16.8492,68.9461,292.5402,0,U,40967,999,10887,.21481E-3,.2304E-4,0
SINOD-D 1,2015-058E,2026-05-16T14:06:18.848160,14.95645120,.0117617,64.7762,357.8510,65.7654,295.5697,0,U,40968,999,11193,.26527E-3,.3216E-4,0
ELEKTRO-L 2,2015-074A,2026-05-16T16:03:04.504032,1.00272052,.0001477,6.6144,70.9014,259.0104,130.7368,0,U,41105,999,3819,0,-.109E-5,0
DAMPE,2015-078A,2026-05-16T20:32:55.268736,15.30700812,.0011721,97.4562,142.1708,178.6498,181.4777,0,U,41173,999,57975,.3535E-4,.973E-5,0
ORBCOMM FM114,2015-081A,2026-05-16T17:57:13.773312,14.58819892,.0001551,47.0031,150.6400,28.2065,331.8904,0,U,41179,999,55316,.6944E-4,.157E-5,0
ORBCOMM FM110,2015-081D,2026-05-16T17:40:57.516384,14.58825709,.0004047,47.0003,150.1430,286.5861,73.4580,0,U,41182,999,55303,.10588E-3,.329E-5,0
ORBCOMM FM112,2015-081F,2026-05-16T03:50:07.156320,14.58759217,.0002244,46.9992,61.6879,53.2241,306.8850,0,U,41184,999,55427,.10112728E-3,.306E-5,0
ORBCOMM FM113,2015-081G,2026-05-16T19:41:25.533024,14.58820645,.0001161,47.0013,58.9261,37.1436,322.9530,0,U,41185,999,55435,.78576E-4,.2E-5,0
ORBCOMM FM108,2015-081J,2026-05-16T20:26:09.879072,14.58823111,.0002074,47.0059,330.3461,50.3193,309.7875,0,U,41187,999,55550,.10905E-3,.344E-5,0
ORBCOMM FM117,2015-081K,2026-05-16T17:57:47.426112,14.58820896,.0002504,47.0023,329.4766,58.5494,301.5636,0,U,41188,999,55553,.10773E-3,.337E-5,0
ORBCOMM FM116,2015-081L,2026-05-16T19:08:36.134016,14.58829822,.0002242,47.0025,59.0316,288.2160,71.8481,0,U,41189,999,55435,.93183E-4,.269E-5,0
HORYU-4,2016-012D,2026-05-16T20:24:55.340064,15.79065819,.000497,30.9885,305.8839,58.9439,301.1705,0,U,41340,999,56583,.87779E-3,.166597E-2,0
ZIYUAN 3-02 (ZY 3-02),2016-033A,2026-05-16T21:09:30.780864,15.21476358,.0013495,97.3842,213.2549,50.4247,309.8179,0,U,41556,999,55322,.1997E-3,.4431E-4,0
CARTOSAT-2C,2016-040A,2026-05-16T20:11:14.803584,15.19222245,.0008518,97.4505,197.2452,238.9843,121.0555,0,U,41599,999,54895,.22519E-3,.4678E-4,0
LAPAN-A3,2016-040E,2026-05-16T20:37:47.343072,15.32894859,.0011993,97.1486,134.0413,122.4554,237.7850,0,U,41603,999,55001,.77705E-4,.2399E-4,0
GAOFEN-3,2016-049A,2026-05-16T20:43:53.617728,14.42211066,.0000967,98.4017,145.1219,81.2616,278.8683,0,U,41727,999,51413,.2474E-4,.38E-6,0
CAS-2T & KS-1Q,2016-066G,2026-05-16T15:44:48.494112,14.44595835,.034123,98.3826,212.7497,225.0916,132.2118,0,U,41847,999,50024,.10148E-3,.652E-5,0
YUNHAI-1 01,2016-068A,2026-05-16T21:05:32.053344,14.32715670,.0006414,98.5841,148.1761,119.0008,241.1819,0,U,41857,999,49734,.70816E-4,.149E-5,0
RESOURCESAT-2A,2016-074A,2026-05-16T19:42:15.417792,14.21606577,.0002696,98.7536,210.5799,144.4104,215.7254,0,U,41877,999,48984,.16309E-3,.313E-5,0
TANSAT,2016-081A,2026-05-16T20:36:47.907648,14.59922959,.002166,98.5362,136.1916,48.3172,311.9876,0,U,41898,999,50005,.10121E-3,.436E-5,0
JILIN-1 03,2017-002B,2026-05-16T20:38:36.877056,15.40775695,.000363,97.1951,144.4051,291.7467,68.3393,0,U,41914,999,51703,.2577E-3,.10469E-3,0
CARTOSAT-2D,2017-008A,2026-05-16T19:23:14.294976,15.19242857,.0004461,97.4132,196.6944,7.7745,352.3558,0,U,41948,999,51281,.23865E-3,.4962E-4,0
CARTOSAT-2E,2017-036C,2026-05-16T19:48:20.015424,15.19220456,.0004267,97.4300,197.1397,65.6758,294.4922,0,U,42767,999,49338,.24643E-3,.5123E-4,0
