LINGQIAO VIDEO A        
1 40959U 15057B   26136.86750008  .00000134  00000+0  25648-4 0  9993
2 40959  97.6614 133.2167 0017365  16.6231 343.5546 14.77344279570781
LINGQIAO VIDEO B        
1 40960U 15057C   26136.91414375  .00000640  00000+0  96381-4 0  9999
2 40960  97.6581 134.4329 0017524  16.5841 343.5939 14.77451499570837
JILIN-1                 
1 40961U 15057D   26136.80616626  .00000501  00000+0  75890-4 0  9999
2 40961  97.6511 137.7331 0017218  11.2417 348.9176 14.78103758570971
FOX-1A (AO-85)          
1 40967U 15058D   26136.69130713  .00002304  00000+0  21481-3 0  9990
2 40967  64.7768  16.8492 0129119  68.9461 292.5402 14.90772442108871
SINOD-D 1               
1 40968U 15058E   26136.58771815  .00003216  00000+0  26527-3 0  9992
2 40968  64.7762 357.8510 0117617  65.7654 295.5697 14.95645120111931
ELEKTRO-L 2             
1 41105U 15074A   26136.66880213 -.00000109  00000+0  00000+0 0  9999
2 41105   6.6144  70.9014 0001477 259.0104 130.7368  1.00272052 38193
DAMPE                   
1 41173U 15078A   26136.85619524  .00000973  00000+0  35350-4 0  9993
2 41173  97.4562 142.1708 0011721 178.6498 181.4777 15.30700812579754
ORBCOMM FM114           
1 41179U 15081A   26136.74807608  .00000157  00000+0  69440-4 0  9994
2 41179  47.0031 150.6400 0001551  28.2065 331.8904 14.58819892553163
ORBCOMM FM110           
1 41182U 15081D   26136.73677681  .00000329  00000+0  10588-3 0  9992
2 41182  47.0003 150.1430 0004047 286.5861  73.4580 14.58825709553039
ORBCOMM FM112           
1 41184U 15081F   26136.15980505  .00000306  00000+0  10113-3 0  9991
2 41184  46.9992  61.6879 0002244  53.2241 306.8850 14.58759217554277
ORBCOMM FM113           
1 41185U 15081G   26136.82043441  .00000200  00000+0  78576-4 0  9996
2 41185  47.0013  58.9261 0001161  37.1436 322.9530 14.58820645554359
ORBCOMM FM108           
1 41187U 15081J   26136.85150323  .00000344  00000+0  10905-3 0  9999
2 41187  47.0059 330.3461 0002074  50.3193 309.7875 14.58823111555505
ORBCOMM FM117           
1 41188U 15081K   26136.74846558  .00000337  00000+0  10773-3 0  9995
2 41188  47.0023 329.4766 0002504  58.5494 301.5636 14.58820896555531
ORBCOMM FM116           
1 41189U 15081L   26136.79764044  .00000269  00000+0  93183-4 0  9991
2 41189  47.0025  59.0316 0002242 288.2160  71.8481 14.58829822554354
HORYU-4                 
1 41340U 16012D   26136.85064051  .00166597  00000+0  87779-3 0  9993
2 41340  30.9885 305.8839 0004970  58.9439 301.1705 15.79065819565836
ZIYUAN 3-02 (ZY 3-02)   
1 41556U 16033A   26136.88160626  .00004431  00000+0  19970-3 0  9999
2 41556  97.3842 213.2549 0013495  50.4247 309.8179 15.21476358553222
CARTOSAT-2C             
1 41599U 16040A   26136.84114356  .00004678  00000+0  22519-3 0  9995
2 41599  97.4505 197.2452 0008518 238.9843 121.0555 15.19222245548952
LAPAN-A3                
1 41603U 16040E   26136.85957573  .00002399  00000+0  77705-4 0  9994
2 41603  97.1486 134.0413 0011993 122.4554 237.7850 15.32894859550010
GAOFEN-3                
1 41727U 16049A   26136.86381502  .00000038  00000+0  24740-4 0  9993
2 41727  98.4017 145.1219 0000967  81.2616 278.8683 14.42211066514134
CAS-2T & KS-1Q          
1 41847U 16066G   26136.65611683  .00000652  00000+0  10148-3 0  9996
2 41847  98.3826 212.7497 0341230 225.0916 132.2118 14.44595835500249
YUNHAI-1 01             
1 41857U 16068A   26136.87884321  .00000149  00000+0  70816-4 0  9994
2 41857  98.5841 148.1761 0006414 119.0008 241.1819 14.32715670497343
RESOURCESAT-2A          
1 41877U 16074A   26136.82101178  .00000313  00000+0  16309-3 0  9999
2 41877  98.7536 210.5799 0002696 144.4104 215.7254 14.21606577489849
TANSAT                  
1 41898U 16081A   26136.85888782  .00000436  00000+0  10121-3 0  9998
2 41898  98.5362 136.1916 0021660  48.3172 311.9876 14.59922959500052
JILIN-1 03              
1 41914U 17002B   26136.86014904  .00010469  00000+0  25770-3 0  9992
2 41914  97.1951 144.4051 0003630 291.7467  68.3393 15.40775695517037
CARTOSAT-2D             
1 41948U 17008A   26136.80780434  .00004962  00000+0  23865-3 0  9991
2 41948  97.4132 196.6944 0004461   7.7745 352.3558 15.19242857512810
CARTOSAT-2E             
1 42767U 17036C   26136.82523166  .00005123  00000+0  24643-3 0  9996
2 42767  97.4300 197.1397 0004267  65.6758 294.4922 15.19220456493388
